SENTINEL-6              
1 46984U 20086A   23239.88537062 -.00000043  00000+0  76811-4 0  9999
2 46984  66.0403 102.5396 0007871 268.4360  91.5754 12.80929272129139
